SITRO-AIS 6 (CHIRKIN)   
1 57192U 23091AC  24327.44637628  .00015751  00000+0  87792-3 0  9991
2 57192  97.5905  18.6196 0014821 301.5576  58.4208 15.13587189 77396
SITRO-AIS 8 (ANOKHIN)   
1 57193U 23091AD  24327.49599757  .00017953  00000+0  97973-3 0  9995
2 57193  97.5906  18.8496 0014476 302.2494  57.7334 15.14318009 77415
SITRO-AIS 7 (FARTUSHNIY)
1 57194U 23091AE  24327.45794993  .00014764  00000+0  82552-3 0  9995
2 57194  97.5906  18.5956 0014616 302.4879  57.4939 15.13492254 77398
AVION KALUGA 650        
1 57195U 23091AF  24327.46608306  .00009963  00000+0  59333-3 0  9995
2 57195  97.5946  18.8356 0011183 293.3479  66.6574 15.11356687 77394
HORS 2                  
1 57196U 23091AG  24327.48682639  .00016626  00000+0  88655-3 0  9992
2 57196  97.5930  19.9209 0010452 287.7133  72.2958 15.15201208 77479
A-SEANSAT-PG1           
1 57197U 23091AH  24327.44106576  .00019497  00000+0  10060-2 0  9993
2 57197  97.5906  20.0092 0010159 290.2617  69.7523 15.16331396 77489
YARILO 3                
1 57198U 23091AJ  24327.49057158  .00074184  00000+0  22756-2 0  9999
2 57198  97.5921  24.2409 0007507 278.5154  81.5237 15.33450288 77747
SITRO-AIS 10 (BURDAEV)  
1 57199U 23091AK  24327.51934020  .00017815  00000+0  91151-3 0  9999
2 57199  97.5919  20.2958 0009846 288.2003  71.8158 15.16651725 77507
SITRO-AIS 9 (SHCHUKIN)  
1 57201U 23091AM  24327.45504929  .00018968  00000+0  97190-3 0  9996
2 57201  97.5914  20.1944 0009824 288.5292  71.4873 15.16586732 77492
UTMN 2 (RS27S)          
1 57203U 23091AP  24327.46376065  .00016935  00000+0  89991-3 0  9999
2 57203  97.5925  19.9350 0010389 283.9347  76.0730 15.15319142 77470
SITRO-AIS 12 (SMIRENNIY)
1 57204U 23091AQ  24327.46317009  .00018928  00000+0  96441-3 0  9995
2 57204  97.5924  20.3990 0009651 281.8340  78.1810 15.16787256 77508
ARCCUBE 1 (RS25S)       
1 57205U 23091AR  24327.45818008  .00040555  00000+0  16228-2 0  9995
2 57205  97.5844  22.0556 0008132 283.8523  76.1809 15.24930179 77638
SITRO-AIS 11 (SHEFFER)  
1 57208U 23091AU  24327.43724913  .00019420  00000+0  98535-3 0  9996
2 57208  97.5921  20.4182 0009588 282.2907  77.7252 15.16928968 77508
H2SAT (HEINRICH HERTZ)  
1 57213U 23093A   24325.36682462  .00000002  00000+0  00000+0 0  9998
2 57213   0.0151 295.3621 0002363 315.8039 301.2683  1.00270747  5161
KUZGTU 1 (RS47S)        
1 57217U 23091AV  24327.50479781  .00015721  00000+0  86879-3 0  9992
2 57217  97.5910  18.8807 0014483 296.4260  63.5485 15.13897389 77410
2023-103B               
1 57422U 23103B   24327.47993250  .00127176  00000+0  54911-3 0  9992
2 57422  96.5518  29.8200 0009286 163.3075 196.8505 15.84552077 76547
FENGYUN 3F              
1 57490U 23111A   24327.50316178  .00000233  00000+0  13023-3 0  9991
2 57490  98.7535  35.0492 0001216  52.5842 307.5445 14.19941811 67733
HJ-2F                   
1 57519U 23116A   24327.50022361  .00020855  00000+0  87222-3 0  9990
2 57519  97.3895 331.7908 0017917 152.7911 207.4268 15.23465232 71798
XRISM                   
1 57800U 23137A   24327.39395769  .00009972  00000+0  68869-3 0  9991
2 57800  31.0026  83.3267 0008485 343.7305  16.3058 15.04491187 66503
VERONIKA                
1 58261U 23174F   24327.44117755  .00052390  00000+0  15681-2 0  9992
2 58261  97.4429  41.8561 0009365  45.3547 314.8458 15.34319185 57853
2024-149A               
1 60468U 24149A   24326.63724322  .00011836  00000+0  55079-3 0  9997
2 60468  97.4300  40.5910 0005154  89.8489 270.3337 15.20078726 14692
WARATAH SEED-1          
1 60469U 24149B   24326.62453168  .00011335  00000+0  52325-3 0  9999
2 60469  97.4292  40.5969 0003947  91.4179 268.7508 15.20372400 14697
PHISAT 2                
1 60470U 24149C   24327.10196332  .00010993  00000+0  51456-3 0  9995
2 60470  97.4331  41.0777 0003098  95.8178 264.3411 15.19903027 14766
LEMUR-2-TOMATOKECHUP    
1 60471U 24149D   24327.14659545  .00015168  00000+0  69228-3 0  9995
2 60471  97.4353  41.1982 0003510 102.8141 257.3487 15.20696555 14771
CONNECTA IOT-1          
1 60472U 24149E   24327.11618454  .00009005  00000+0  42982-3 0  9998
2 60472  97.4332  41.0598 0003633 109.1890 250.9738 15.19282319 14762
LOPEN                   
1 60473U 24149F   24327.19869956  .00017036  00000+0  77027-3 0  9993
2 60473  97.4342  41.2709 0003203 114.6918 245.4651 15.20994871 14785
ROCK                    
1 60474U 24149G   24327.19820209  .00017205  00000+0  77758-3 0  9991
2 60474  97.4344  41.2709 0003115 114.4682 245.6879 15.21006730 14789
CONNECTA IOT-3          
1 60475U 24149H   24327.16967406  .00009840  00000+0  46381-3 0  9994
2 60475  97.4284  41.0789 0005313 109.8128 250.3680 15.19685553 14779
QUBE                    
1 60476U 24149J   24327.17239560  .00022820  00000+0  10061-2 0  9997
2 60476  97.4343  41.3082 0004081 111.8413 248.3257 15.21793605 14785
SATORO-T2               
1 60477U 24149K   24327.44732999  .00030028  00000+0  12551-2 0  9997
2 60477  97.4312  41.6544 0003484 110.8423 249.3187 15.23553076 14831
WREN-1                  
1 60478U 24149L   24327.15794685  .00024707  00000+0  10745-2 0  9996
2 60478  97.4317  41.2966 0007458 129.4277 230.7620 15.22227324 14782
TOMORROW-S1             
1 60479U 24149M   24326.48380679  .00011850  00000+0  54501-3 0  9990
2 60479  97.4299  40.4863 0004513 115.8657 244.3045 15.20487965 14676
FLOCK 4BE-18            
1 60480U 24149N   24327.19023068  .00018186  00000+0  81759-3 0  9991
2 60480  97.4307  41.2390 0006462 123.1409 237.0448 15.21163107 14782
FLOCK 4BE-7             
1 60481U 24149P   24327.51837160  .00017882  00000+0  80602-3 0  9992
2 60481  97.4337  41.6058 0005349 122.5921 237.5832 15.21081785 14835
FLOCK 4BE-4             
1 60482U 24149Q   24326.97169039  .00106839  00000+0  34471-2 0  9998
2 60482  97.4304  41.5541 0003168 158.6234 201.5140 15.31704633 14782
FLOCK 4BE-16            
1 60483U 24149R   24327.11619653  .00017141  00000+0  76737-3 0  9997
2 60483  97.4326  41.2064 0004718 120.7750 239.3951 15.21328691 14772
FLOCK 4BE-26            
1 60484U 24149S   24326.52358494  .00013882  00000+0  62488-3 0  9991
2 60484  97.4294  40.5812 0005537 124.4962 235.6797 15.21184148 14680
TOMORROW-S2             
1 60485U 24149T   24327.44550484  .00014783  00000+0  66540-3 0  9991
2 60485  97.4359  41.5695 0004768 119.1977 240.9736 15.21175199 14829
FLOCK 4BE-36            
1 60486U 24149U   24327.11092515  .00018591  00000+0  82872-3 0  9999
2 60486  97.4300  41.1822 0006307 131.1494 229.0287 15.21450360 14772
FLOCK 4BE-25            
1 60487U 24149V   24326.45609625  .00013065  00000+0  58928-3 0  9998
2 60487  97.4352  40.5988 0004533 124.4008 235.7657 15.21133828 14672
FLOCK 4BE-31            
1 60488U 24149W   24327.10186379  .00018154  00000+0  80562-3 0  9991
2 60488  97.4350  41.2626 0004807 127.7127 232.4545 15.21616550 14779
FLOCK 4BE-20            
1 60489U 24149X   24326.52043328  .00012477  00000+0  56350-3 0  9993
2 60489  97.4280  40.5709 0006139 131.2658 228.9107 15.21092308 14688
FLOCK 4BE-23            
1 60490U 24149Y   24326.46342246  .00012377  00000+0  56200-3 0  9992
2 60490  97.4347  40.5796 0005798 130.4440 229.7302 15.20912676 14673
FLOCK 4BE-15            
1 60491U 24149Z   24326.45086859  .00014264  00000+0  63820-3 0  9990
2 60491  97.4279  40.5078 0005554 132.7926 227.3778 15.21384891 14679
FLOCK 4BE-17            
1 60492U 24149AA  24326.19464458  .00014554  00000+0  65577-3 0  9990
2 60492  97.4357  40.3410 0005041 132.7108 227.4552 15.21141434 14639
NUSAT-50 (NANCY ROMAN)  
1 60493U 24149AB  24326.18732283  .00014021  00000+0  62989-3 0  9997
2 60493  97.4335  40.3245 0005784 132.9304 227.2418 15.21248743 14636
FLOCK 4BE-22            
1 60494U 24149AC  24326.44719255  .00015072  00000+0  67266-3 0  9991
2 60494  97.4296  40.5334 0006442 140.1385 220.0325 15.21453261 14671
FLOCK 4BE-34            
1 60495U 24149AD  24326.45425300  .00010323  00000+0  46893-3 0  9995
2 60495  97.4345  40.5901 0005969 131.3340 228.8410 15.20943955 14677
TYCHE                   
1 60496U 24149AE  24326.88183708  .00009673  00000+0  45299-3 0  9991
2 60496  97.4333  40.9160 0005905 136.1615 224.0089 15.19912368 14733
FLOCK 4BE-32            
1 60497U 24149AF  24326.62967117  .00016425  00000+0  72774-3 0  9999
2 60497  97.4281  40.7289 0005975 135.8872 224.2841 15.21686273 14705
NUSAT-48 (HENRIETTA LE*)
1 60498U 24149AG  24327.10244032  .00016895  00000+0  75576-3 0  9992
2 60498  97.4302  41.1949 0006485 140.0456 220.1258 15.21350083 14772
FLOCK 4BE-30            
1 60499U 24149AH  24327.15889928  .00018365  00000+0  81387-3 0  9998
2 60499  97.4356  41.3450 0004701 135.5790 224.5824 15.21660946 14162
NUSAT-49 (KLARA DAN VO*)
1 60500U 24149AJ  24327.16631077  .00016622  00000+0  74319-3 0  9993
2 60500  97.4330  41.3033 0005506 134.1860 225.9829 15.21375925 14789
FLOCK 4BE-11            
1 60501U 24149AK  24326.63394155  .00016593  00000+0  73782-3 0  9998
2 60501  97.4283  40.7253 0006415 144.0850 216.0819 15.21560232 14702
FLOCK 4BE-33            
1 60502U 24149AL  24327.16348317  .00016671  00000+0  74628-3 0  9994
2 60502  97.4299  41.2573 0006437 147.8720 212.2910 15.21328018 14784
FLOCK 4BE-10            
1 60503U 24149AM  24327.09591405  .00016539  00000+0  73910-3 0  9991
2 60503  97.4347  41.2688 0004836 143.7189 216.4375 15.21396723 14779
YAM-7                   
1 60504U 24149AN  24326.45470587  .00010307  00000+0  47136-3 0  9996
2 60504  97.4340  40.5774 0005085 144.3508 215.8067 15.20716223 14670
FLOCK 4BE-24            
1 60505U 24149AP  24326.48108764  .00015393  00000+0  67730-3 0  9997
2 60505  97.4283  40.6225 0006265 153.5287 206.6270 15.21936448 14685
LUR-1                   
1 60506U 24149AQ  24327.18537535  .00008333  00000+0  38571-3 0  9995
2 60506  97.4320  41.2570 0005438 148.6370 211.5191 15.20360189 14787
